0 CZ-3A R/B
1 37385U 11013B   13282.94039100  .00000196  00000-0  60476-3 0  7130
2 37385 055.1527 209.6253 6923022 310.2373 324.4953 02.63293581 23096
0 CZ-3A R/B
1 37385U 11013B   13283.36535103  .00000186  00000-0  54842-3 0  7130
2 37385 055.1509 209.5054 6923259 310.3078 007.2935 02.63292674 23110
0 CZ-3A R/B
1 37385U 11013B   13286.78345868 -.00000045  00000-0  59016-3 0  7140
2 37385 055.2465 208.5890 6921159 310.7979 007.1757 02.63294071 23192
0 CZ-3A R/B
1 37385U 11013B   13291.29799094  .00000036  00000-0  33289-3 0  7150
2 37385 055.1574 207.3692 6919251 311.4808 326.3354 02.63297938 23316
0 CZ-3A R/B
1 37385U 11013B   13294.76535624  .00000126  00000-0  37496-3 0  7167
2 37385 055.1584 206.4364 6917812 311.9945 012.9572 02.63298529 23419
